INTELSAT 23 (IS-23)     
1 38867U 12057A   26061.72014788 -.00000301  00000+0  00000+0 0  9992
2 38867   0.0483 262.0846 0001022  80.2785  24.3773  1.00274327 48882
FM-6                    
1 39360U 13058A   26061.70775449 -.00000033  00000+0  00000+0 0  9991
2 39360   0.0204 131.0350 0003055  50.9706 117.0839  1.00270617 45004
INTELSAT 30 (IS-30)     
1 40271U 14062A   26061.56931257 -.00000168  00000+0  00000+0 0  9994
2 40271   0.0132  80.1970 0001224  39.8897 150.1612  1.00271399  5722
DIRECTV 14              
1 40333U 14078B   26061.56844590 -.00000142  00000+0  00000+0 0  9995
2 40333   0.0187 111.6213 0000432  61.3841  92.7230  1.00272089 40970
DIRECTV 15              
1 40663U 15026A   26061.63907959 -.00000119  00000+0  00000+0 0  9996
2 40663   0.0193 103.6717 0000809 110.5444  73.3814  1.00272297 39395
SKY MEXICO-1            
1 40664U 15026B   26061.57251927  .00000000  00000+0  00000+0 0  9995
2 40664   0.0278 138.2718 0002271 223.8364 285.5863  1.00267334 39385
INTELSAT 34 (IS-34)     
1 40874U 15039A   26061.50578560 -.00000303  00000+0  00000+0 0  9997
2 40874   0.0265 260.5381 0000145  18.3723   7.9597  1.00271587 38556
INTELSAT 31 (IS-31)     
1 41581U 16035A   26061.56931257 -.00000168  00000+0  00000+0 0  9991
2 41581   0.0391 253.1177 0001965 338.9143  38.2045  1.00271184 35613
INTELSAT 36 (IS-36)     
1 41747U 16053A   26061.73794943  .00000000  00000+0  00000+0 0  9997
2 41747   0.0213 123.1530 0001279 200.6638 170.8806  1.00268451 34891
INTELSAT 32E (IS-32E)   
1 41945U 17007B   26061.50829896 -.00000286  00000+0  00000+0 0  9995
2 41945   0.0143 120.1400 0000460 168.2214  11.7193  1.00272743 33155
INTELSAT 35E (IS-35E)   
1 42818U 17041A   26061.72396123 -.00000255  00000+0  00000+0 0  9995
2 42818   0.0366 260.8184 0002257  77.8204  47.9592  1.00271311 31740
INTELSAT 37E (IS-37E)   
1 42950U 17059A   26061.74481560  .00000000  00000+0  00000+0 0  9990
2 42950   0.0262 151.1100 0002204 190.8550  68.7074  1.00269304 30995
AZERSPACE 2 (IS-38)     
1 43632U 18074A   26061.73973463  .00000000  00000+0  00000+0 0  9993
2 43632   0.0250 149.9423 0001485 198.0695 123.9322  1.00269584 27382
HORIZONS-3E             
1 43633U 18074B   26061.38462569 -.00000048  00000+0  00000+0 0  9998
2 43633   0.0174 320.8100 0000680   1.7401 145.0434  1.00271501 27270
AT&T T-16               
1 44333U 19034A   26061.63933959 -.00000131  00000+0  00000+0 0  9990
2 44333   0.0210 101.4606 0000719  73.8859 114.3516  1.00268365 24566
INTELSAT 39 (IS-39)     
1 44476U 19049B   26061.39697382  .00000000  00000+0  00000+0 0  9998
2 44476   0.0272 143.6954 0000616  12.8828 208.4639  1.00269151 24050
GALAXY 30 (G-30)        
1 46114U 20056C   26061.70584780  .00000020  00000+0  00000+0 0  9993
2 46114   0.0178 122.3295 0002202 216.8886 310.3450  1.00272146 20228
