[{"OBJECT_NAME":"INTELSAT 23 (IS-23)","OBJECT_ID":"2012-057A","EPOCH":"2026-03-02T17:17:00.776832","MEAN_MOTION":1.00274327,"ECCENTRICITY":0.0001022,"INCLINATION":0.0483,"RA_OF_ASC_NODE":262.0846,"ARG_OF_PERICENTER":80.2785,"MEAN_ANOMALY":24.3773,"EPHEMERIS_TYPE":0,"CLASSIFICATION_TYPE":"U","NORAD_CAT_ID":38867,"ELEMENT_SET_NO":999,"REV_AT_EPOCH":4888,"BSTAR":0,"MEAN_MOTION_DOT":-3.01e-6,"MEAN_MOTION_DDOT":0},{"OBJECT_NAME":"FM-6","OBJECT_ID":"2013-058A","EPOCH":"2026-03-02T16:59:09.987936","MEAN_MOTION":1.00270617,"ECCENTRICITY":0.0003055,"INCLINATION":0.0204,"RA_OF_ASC_NODE":131.035,"ARG_OF_PERICENTER":50.9706,"MEAN_ANOMALY":117.0839,"EPHEMERIS_TYPE":0,"CLASSIFICATION_TYPE":"U","NORAD_CAT_ID":39360,"ELEMENT_SET_NO":999,"REV_AT_EPOCH":4500,"BSTAR":0,"MEAN_MOTION_DOT":-3.3e-7,"MEAN_MOTION_DDOT":0},{"OBJECT_NAME":"INTELSAT 30 (IS-30)","OBJECT_ID":"2014-062A","EPOCH":"2026-03-02T13:39:48.606048","MEAN_MOTION":1.00271399,"ECCENTRICITY":0.0001224,"INCLINATION":0.0132,"RA_OF_ASC_NODE":80.197,"ARG_OF_PERICENTER":39.8897,"MEAN_ANOMALY":150.1612,"EPHEMERIS_TYPE":0,"CLASSIFICATION_TYPE":"U","NORAD_CAT_ID":40271,"ELEMENT_SET_NO":999,"REV_AT_EPOCH":572,"BSTAR":0,"MEAN_MOTION_DOT":-1.68e-6,"MEAN_MOTION_DDOT":0},{"OBJECT_NAME":"DIRECTV 14","OBJECT_ID":"2014-078B","EPOCH":"2026-03-02T13:38:33.725760","MEAN_MOTION":1.00272089,"ECCENTRICITY":4.32e-5,"INCLINATION":0.0187,"RA_OF_ASC_NODE":111.6213,"ARG_OF_PERICENTER":61.3841,"MEAN_ANOMALY":92.723,"EPHEMERIS_TYPE":0,"CLASSIFICATION_TYPE":"U","NORAD_CAT_ID":40333,"ELEMENT_SET_NO":999,"REV_AT_EPOCH":4097,"BSTAR":0,"MEAN_MOTION_DOT":-1.42e-6,"MEAN_MOTION_DDOT":0},{"OBJECT_NAME":"DIRECTV 15","OBJECT_ID":"2015-026A","EPOCH":"2026-03-02T15:20:16.476576","MEAN_MOTION":1.00272297,"ECCENTRICITY":8.09e-5,"INCLINATION":0.0193,"RA_OF_ASC_NODE":103.6717,"ARG_OF_PERICENTER":110.5444,"MEAN_ANOMALY":73.3814,"EPHEMERIS_TYPE":0,"CLASSIFICATION_TYPE":"U","NORAD_CAT_ID":40663,"ELEMENT_SET_NO":999,"REV_AT_EPOCH":3939,"BSTAR":0,"MEAN_MOTION_DOT":-1.19e-6,"MEAN_MOTION_DDOT":0},{"OBJECT_NAME":"SKY MEXICO-1","OBJECT_ID":"2015-026B","EPOCH":"2026-03-02T13:44:25.664928","MEAN_MOTION":1.00267334,"ECCENTRICITY":0.0002271,"INCLINATION":0.0278,"RA_OF_ASC_NODE":138.2718,"ARG_OF_PERICENTER":223.8364,"MEAN_ANOMALY":285.5863,"EPHEMERIS_TYPE":0,"CLASSIFICATION_TYPE":"U","NORAD_CAT_ID":40664,"ELEMENT_SET_NO":999,"REV_AT_EPOCH":3938,"BSTAR":0,"MEAN_MOTION_DOT":0,"MEAN_MOTION_DDOT":0},{"OBJECT_NAME":"INTELSAT 34 (IS-34)","OBJECT_ID":"2015-039A","EPOCH":"2026-03-02T12:08:19.875840","MEAN_MOTION":1.00271587,"ECCENTRICITY":1.45e-5,"INCLINATION":0.0265,"RA_OF_ASC_NODE":260.5381,"ARG_OF_PERICENTER":18.3723,"MEAN_ANOMALY":7.9597,"EPHEMERIS_TYPE":0,"CLASSIFICATION_TYPE":"U","NORAD_CAT_ID":40874,"ELEMENT_SET_NO":999,"REV_AT_EPOCH":3855,"BSTAR":0,"MEAN_MOTION_DOT":-3.03e-6,"MEAN_MOTION_DDOT":0},{"OBJECT_NAME":"INTELSAT 31 (IS-31)","OBJECT_ID":"2016-035A","EPOCH":"2026-03-02T13:39:48.606048","MEAN_MOTION":1.00271184,"ECCENTRICITY":0.0001965,"INCLINATION":0.0391,"RA_OF_ASC_NODE":253.1177,"ARG_OF_PERICENTER":338.9143,"MEAN_ANOMALY":38.2045,"EPHEMERIS_TYPE":0,"CLASSIFICATION_TYPE":"U","NORAD_CAT_ID":41581,"ELEMENT_SET_NO":999,"REV_AT_EPOCH":3561,"BSTAR":0,"MEAN_MOTION_DOT":-1.68e-6,"MEAN_MOTION_DDOT":0},{"OBJECT_NAME":"INTELSAT 36 (IS-36)","OBJECT_ID":"2016-053A","EPOCH":"2026-03-02T17:42:38.830752","MEAN_MOTION":1.00268451,"ECCENTRICITY":0.0001279,"INCLINATION":0.0213,"RA_OF_ASC_NODE":123.153,"ARG_OF_PERICENTER":200.6638,"MEAN_ANOMALY":170.8806,"EPHEMERIS_TYPE":0,"CLASSIFICATION_TYPE":"U","NORAD_CAT_ID":41747,"ELEMENT_SET_NO":999,"REV_AT_EPOCH":3489,"BSTAR":0,"MEAN_MOTION_DOT":0,"MEAN_MOTION_DDOT":0},{"OBJECT_NAME":"INTELSAT 32E (IS-32E)","OBJECT_ID":"2017-007B","EPOCH":"2026-03-02T12:11:57.030144","MEAN_MOTION":1.00272743,"ECCENTRICITY":4.6e-5,"INCLINATION":0.0143,"RA_OF_ASC_NODE":120.14,"ARG_OF_PERICENTER":168.2214,"MEAN_ANOMALY":11.7193,"EPHEMERIS_TYPE":0,"CLASSIFICATION_TYPE":"U","NORAD_CAT_ID":41945,"ELEMENT_SET_NO":999,"REV_AT_EPOCH":3315,"BSTAR":0,"MEAN_MOTION_DOT":-2.86e-6,"MEAN_MOTION_DDOT":0},{"OBJECT_NAME":"INTELSAT 35E (IS-35E)","OBJECT_ID":"2017-041A","EPOCH":"2026-03-02T17:22:30.250272","MEAN_MOTION":1.00271311,"ECCENTRICITY":0.0002257,"INCLINATION":0.0366,"RA_OF_ASC_NODE":260.8184,"ARG_OF_PERICENTER":77.8204,"MEAN_ANOMALY":47.9592,"EPHEMERIS_TYPE":0,"CLASSIFICATION_TYPE":"U","NORAD_CAT_ID":42818,"ELEMENT_SET_NO":999,"REV_AT_EPOCH":3174,"BSTAR":0,"MEAN_MOTION_DOT":-2.55e-6,"MEAN_MOTION_DDOT":0},{"OBJECT_NAME":"INTELSAT 37E (IS-37E)","OBJECT_ID":"2017-059A","EPOCH":"2026-03-02T17:52:32.067840","MEAN_MOTION":1.00269304,"ECCENTRICITY":0.0002204,"INCLINATION":0.0262,"RA_OF_ASC_NODE":151.11,"ARG_OF_PERICENTER":190.855,"MEAN_ANOMALY":68.7074,"EPHEMERIS_TYPE":0,"CLASSIFICATION_TYPE":"U","NORAD_CAT_ID":42950,"ELEMENT_SET_NO":999,"REV_AT_EPOCH":3099,"BSTAR":0,"MEAN_MOTION_DOT":0,"MEAN_MOTION_DDOT":0},{"OBJECT_NAME":"AZERSPACE 2 (IS-38)","OBJECT_ID":"2018-074A","EPOCH":"2026-03-02T17:45:13.072032","MEAN_MOTION":1.00269584,"ECCENTRICITY":0.0001485,"INCLINATION":0.025,"RA_OF_ASC_NODE":149.9423,"ARG_OF_PERICENTER":198.0695,"MEAN_ANOMALY":123.9322,"EPHEMERIS_TYPE":0,"CLASSIFICATION_TYPE":"U","NORAD_CAT_ID":43632,"ELEMENT_SET_NO":999,"REV_AT_EPOCH":2738,"BSTAR":0,"MEAN_MOTION_DOT":0,"MEAN_MOTION_DDOT":0},{"OBJECT_NAME":"HORIZONS-3E","OBJECT_ID":"2018-074B","EPOCH":"2026-03-02T09:13:51.659616","MEAN_MOTION":1.00271501,"ECCENTRICITY":6.802e-5,"INCLINATION":0.0174,"RA_OF_ASC_NODE":320.81,"ARG_OF_PERICENTER":1.7401,"MEAN_ANOMALY":145.0434,"EPHEMERIS_TYPE":0,"CLASSIFICATION_TYPE":"U","NORAD_CAT_ID":43633,"ELEMENT_SET_NO":999,"REV_AT_EPOCH":2727,"BSTAR":0,"MEAN_MOTION_DOT":-4.8e-7,"MEAN_MOTION_DDOT":0},{"OBJECT_NAME":"AT&T T-16","OBJECT_ID":"2019-034A","EPOCH":"2026-03-02T15:20:38.940576","MEAN_MOTION":1.00268365,"ECCENTRICITY":7.19e-5,"INCLINATION":0.021,"RA_OF_ASC_NODE":101.4606,"ARG_OF_PERICENTER":73.8859,"MEAN_ANOMALY":114.3516,"EPHEMERIS_TYPE":0,"CLASSIFICATION_TYPE":"U","NORAD_CAT_ID":44333,"ELEMENT_SET_NO":999,"REV_AT_EPOCH":2456,"BSTAR":0,"MEAN_MOTION_DOT":-1.31e-6,"MEAN_MOTION_DDOT":0},{"OBJECT_NAME":"INTELSAT 39 (IS-39)","OBJECT_ID":"2019-049B","EPOCH":"2026-03-02T09:31:38.538048","MEAN_MOTION":1.00269151,"ECCENTRICITY":6.167e-5,"INCLINATION":0.0272,"RA_OF_ASC_NODE":143.6954,"ARG_OF_PERICENTER":12.8828,"MEAN_ANOMALY":208.4639,"EPHEMERIS_TYPE":0,"CLASSIFICATION_TYPE":"U","NORAD_CAT_ID":44476,"ELEMENT_SET_NO":999,"REV_AT_EPOCH":2405,"BSTAR":0,"MEAN_MOTION_DOT":0,"MEAN_MOTION_DDOT":0},{"OBJECT_NAME":"GALAXY 30 (G-30)","OBJECT_ID":"2020-056C","EPOCH":"2026-03-02T16:56:25.249920","MEAN_MOTION":1.00272146,"ECCENTRICITY":0.0002202,"INCLINATION":0.0178,"RA_OF_ASC_NODE":122.3295,"ARG_OF_PERICENTER":216.8886,"MEAN_ANOMALY":310.345,"EPHEMERIS_TYPE":0,"CLASSIFICATION_TYPE":"U","NORAD_CAT_ID":46114,"ELEMENT_SET_NO":999,"REV_AT_EPOCH":2022,"BSTAR":0,"MEAN_MOTION_DOT":2.0e-7,"MEAN_MOTION_DDOT":0}]
